{"error":0,"error_text":"L\u1ea5y d\u1eef li\u1ec7u ph\u01b0\u1eddng x\u00e3 th\u00e0nh c\u00f4ng..!","data_name":"Qu\u1eadn Ba \u0110\u00ecnh","data":[{"id":"00007","name":"C\u1ed1ng V\u1ecb","name_en":"Cong Vi","full_name":"Ph\u01b0\u1eddng C\u1ed1ng V\u1ecb","full_name_en":"Cong Vi Ward","latitude":"21.0350399","longitude":"105.8101844"},{"id":"00031","name":"Gi\u1ea3ng V\u00f5","name_en":"Giang Vo","full_name":"Ph\u01b0\u1eddng Gi\u1ea3ng V\u00f5","full_name_en":"Giang Vo Ward","latitude":"21.0269451","longitude":"105.8180198"},{"id":"00028","name":"Kim M\u00e3","name_en":"Kim Ma","full_name":"Ph\u01b0\u1eddng Kim M\u00e3","full_name_en":"Kim Ma Ward","latitude":"21.0314542","longitude":"105.8249046"},{"id":"00008","name":"Li\u1ec5u Giai","name_en":"Lieu Giai","full_name":"Ph\u01b0\u1eddng Li\u1ec5u Giai","full_name_en":"Lieu Giai Ward","latitude":"21.0375836","longitude":"105.8174205"},{"id":"00016","name":"Ng\u1ecdc H\u00e0","name_en":"Ngoc Ha","full_name":"Ph\u01b0\u1eddng Ng\u1ecdc H\u00e0","full_name_en":"Ngoc Ha Ward","latitude":"21.0385","longitude":"105.8250869"},{"id":"00025","name":"Ng\u1ecdc Kh\u00e1nh","name_en":"Ngoc Khanh","full_name":"Ph\u01b0\u1eddng Ng\u1ecdc Kh\u00e1nh","full_name_en":"Ngoc Khanh Ward","latitude":"21.0296494","longitude":"105.810283"},{"id":"00010","name":"Nguy\u1ec5n Trung Tr\u1ef1c","name_en":"Nguyen Trung Truc","full_name":"Ph\u01b0\u1eddng Nguy\u1ec5n Trung Tr\u1ef1c","full_name_en":"Nguyen Trung Truc Ward","latitude":"21.0419431","longitude":"105.8472242"},{"id":"00001","name":"Ph\u00fac X\u00e1","name_en":"Phuc Xa","full_name":"Ph\u01b0\u1eddng Ph\u00fac X\u00e1","full_name_en":"Phuc Xa Ward","latitude":"21.0456942","longitude":"105.8482503"},{"id":"00013","name":"Qu\u00e1n Th\u00e1nh","name_en":"Quan Thanh","full_name":"Ph\u01b0\u1eddng Qu\u00e1n Th\u00e1nh","full_name_en":"Quan Thanh Ward","latitude":"21.0415304","longitude":"105.8414121"},{"id":"00034","name":"Th\u00e0nh C\u00f4ng","name_en":"Thanh Cong","full_name":"Ph\u01b0\u1eddng Th\u00e0nh C\u00f4ng","full_name_en":"Thanh Cong Ward","latitude":"21.0205111","longitude":"105.8152857"},{"id":"00004","name":"Tr\u00fac B\u1ea1ch","name_en":"Truc Bach","full_name":"Ph\u01b0\u1eddng Tr\u00fac B\u1ea1ch","full_name_en":"Truc Bach Ward","latitude":"21.0460498","longitude":"105.8418932"},{"id":"00006","name":"V\u0129nh Ph\u00fac","name_en":"Vinh Phuc","full_name":"Ph\u01b0\u1eddng V\u0129nh Ph\u00fac","full_name_en":"Vinh Phuc Ward","latitude":"21.0421695","longitude":"105.8101415"},{"id":"00019","name":"\u0110i\u1ec7n Bi\u00ean","name_en":"Dien Bien","full_name":"Ph\u01b0\u1eddng \u0110i\u1ec7n Bi\u00ean","full_name_en":"Dien Bien Ward","latitude":"21.0323562","longitude":"105.8365906"},{"id":"00022","name":"\u0110\u1ed9i C\u1ea5n","name_en":"Doi Can","full_name":"Ph\u01b0\u1eddng \u0110\u1ed9i C\u1ea5n","full_name_en":"Doi Can Ward","latitude":"21.0346472","longitude":"105.8266045"}]}