{"error":0,"error_text":"L\u1ea5y d\u1eef li\u1ec7u qu\u1eadn huy\u1ec7n th\u00e0nh c\u00f4ng..!","data_name":"Th\u00e0nh ph\u1ed1 H\u00e0 N\u1ed9i","data":[{"id":"271","name":"Ba V\u00ec","name_en":"Ba Vi","full_name":"Huy\u1ec7n Ba V\u00ec","full_name_en":"Ba Vi District","latitude":"21.155976600000002","longitude":"105.37494274237581"},{"id":"001","name":"Ba \u0110\u00ecnh","name_en":"Ba Dinh","full_name":"Qu\u1eadn Ba \u0110\u00ecnh","full_name_en":"Ba Dinh District","latitude":"21.0365377","longitude":"105.8285908"},{"id":"021","name":"B\u1eafc T\u1eeb Li\u00eam","name_en":"Bac Tu Liem","full_name":"Qu\u1eadn B\u1eafc T\u1eeb Li\u00eam","full_name_en":"Bac Tu Liem District","latitude":"21.0712548","longitude":"105.7644855"},{"id":"005","name":"C\u1ea7u Gi\u1ea5y","name_en":"Cau Giay","full_name":"Qu\u1eadn C\u1ea7u Gi\u1ea5y","full_name_en":"Cau Giay District","latitude":"21.0295015","longitude":"105.7914212"},{"id":"277","name":"Ch\u01b0\u01a1ng M\u1ef9","name_en":"Chuong My","full_name":"Huy\u1ec7n Ch\u01b0\u01a1ng M\u1ef9","full_name_en":"Chuong My District","latitude":"20.87851585","longitude":"105.64923352491572"},{"id":"018","name":"Gia L\u00e2m","name_en":"Gia Lam","full_name":"Huy\u1ec7n Gia L\u00e2m","full_name_en":"Gia Lam District","latitude":"21.0238721","longitude":"105.97050129109073"},{"id":"268","name":"H\u00e0 \u0110\u00f4ng","name_en":"Ha Dong","full_name":"Qu\u1eadn H\u00e0 \u0110\u00f4ng","full_name_en":"Ha Dong District","latitude":"20.9551855","longitude":"105.758011"},{"id":"007","name":"Hai B\u00e0 Tr\u01b0ng","name_en":"Hai Ba Trung","full_name":"Qu\u1eadn Hai B\u00e0 Tr\u01b0ng","full_name_en":"Hai Ba Trung District","latitude":"21.0064704","longitude":"105.8578519"},{"id":"274","name":"Ho\u00e0i \u0110\u1ee9c","name_en":"Hoai Duc","full_name":"Huy\u1ec7n Ho\u00e0i \u0110\u1ee9c","full_name_en":"Hoai Duc District","latitude":"21.02292555","longitude":"105.70347943078642"},{"id":"002","name":"Ho\u00e0n Ki\u1ebfm","name_en":"Hoan Kiem","full_name":"Qu\u1eadn Ho\u00e0n Ki\u1ebfm","full_name_en":"Hoan Kiem District","latitude":"21.0302237","longitude":"105.8523115"},{"id":"008","name":"Ho\u00e0ng Mai","name_en":"Hoang Mai","full_name":"Qu\u1eadn Ho\u00e0ng Mai","full_name_en":"Hoang Mai District","latitude":"20.9757581","longitude":"105.8626556"},{"id":"004","name":"Long Bi\u00ean","name_en":"Long Bien","full_name":"Qu\u1eadn Long Bi\u00ean","full_name_en":"Long Bien District","latitude":"21.0359662","longitude":"105.9021921"},{"id":"250","name":"M\u00ea Linh","name_en":"Me Linh","full_name":"Huy\u1ec7n M\u00ea Linh","full_name_en":"Me Linh District","latitude":"21.18078845","longitude":"105.70725700576077"},{"id":"282","name":"M\u1ef9 \u0110\u1ee9c","name_en":"My Duc","full_name":"Huy\u1ec7n M\u1ef9 \u0110\u1ee9c","full_name_en":"My Duc District","latitude":"20.697382599999997","longitude":"105.71577535499549"},{"id":"019","name":"Nam T\u1eeb Li\u00eam","name_en":"Nam Tu Liem","full_name":"Qu\u1eadn Nam T\u1eeb Li\u00eam","full_name_en":"Nam Tu Liem District","latitude":"21.0173512","longitude":"105.7613329"},{"id":"280","name":"Ph\u00fa Xuy\u00ean","name_en":"Phu Xuyen","full_name":"Huy\u1ec7n Ph\u00fa Xuy\u00ean","full_name_en":"Phu Xuyen District","latitude":"20.72904585","longitude":"105.91023981311886"},{"id":"272","name":"Ph\u00fac Th\u1ecd","name_en":"Phuc Tho","full_name":"Huy\u1ec7n Ph\u00fac Th\u1ecd","full_name_en":"Phuc Tho District","latitude":"21.1096428","longitude":"105.57094469616789"},{"id":"275","name":"Qu\u1ed1c Oai","name_en":"Quoc Oai","full_name":"Huy\u1ec7n Qu\u1ed1c Oai","full_name_en":"Quoc Oai District","latitude":"20.9779128","longitude":"105.62959219969346"},{"id":"016","name":"S\u00f3c S\u01a1n","name_en":"Soc Son","full_name":"Huy\u1ec7n S\u00f3c S\u01a1n","full_name_en":"Soc Son District","latitude":"21.2808747","longitude":"105.82924029963563"},{"id":"269","name":"S\u01a1n T\u00e2y","name_en":"Son Tay","full_name":"Th\u1ecb x\u00e3 S\u01a1n T\u00e2y","full_name_en":"Son Tay Town","latitude":"21.1386671","longitude":"105.5056335"},{"id":"003","name":"T\u00e2y H\u1ed3","name_en":"Tay Ho","full_name":"Qu\u1eadn T\u00e2y H\u1ed3","full_name_en":"Tay Ho District","latitude":"21.0683576","longitude":"105.8240984"},{"id":"276","name":"Th\u1ea1ch Th\u1ea5t","name_en":"Thach That","full_name":"Huy\u1ec7n Th\u1ea1ch Th\u1ea5t","full_name_en":"Thach That District","latitude":"21.0235566","longitude":"105.55373581804929"},{"id":"278","name":"Thanh Oai","name_en":"Thanh Oai","full_name":"Huy\u1ec7n Thanh Oai","full_name_en":"Thanh Oai District","latitude":"20.8602693","longitude":"105.78016441102196"},{"id":"020","name":"Thanh Tr\u00ec","name_en":"Thanh Tri","full_name":"Huy\u1ec7n Thanh Tr\u00ec","full_name_en":"Thanh Tri District","latitude":"20.9408967","longitude":"105.83650808063207"},{"id":"009","name":"Thanh Xu\u00e2n","name_en":"Thanh Xuan","full_name":"Qu\u1eadn Thanh Xu\u00e2n","full_name_en":"Thanh Xuan District","latitude":"20.9944171","longitude":"105.8171316"},{"id":"279","name":"Th\u01b0\u1eddng T\u00edn","name_en":"Thuong Tin","full_name":"Huy\u1ec7n Th\u01b0\u1eddng T\u00edn","full_name_en":"Thuong Tin District","latitude":"20.8319978","longitude":"105.87006434087073"},{"id":"281","name":"\u1ee8ng H\u00f2a","name_en":"Ung Hoa","full_name":"Huy\u1ec7n \u1ee8ng H\u00f2a","full_name_en":"Ung Hoa District","latitude":"20.7110772","longitude":"105.81433035379561"},{"id":"273","name":"\u0110an Ph\u01b0\u1ee3ng","name_en":"Dan Phuong","full_name":"Huy\u1ec7n \u0110an Ph\u01b0\u1ee3ng","full_name_en":"Dan Phuong District","latitude":"21.11962705","longitude":"105.67846820592845"},{"id":"017","name":"\u0110\u00f4ng Anh","name_en":"Dong Anh","full_name":"Huy\u1ec7n \u0110\u00f4ng Anh","full_name_en":"Dong Anh District","latitude":"21.1367358","longitude":"105.84603245401874"},{"id":"006","name":"\u0110\u1ed1ng \u0110a","name_en":"Dong Da","full_name":"Qu\u1eadn \u0110\u1ed1ng \u0110a","full_name_en":"Dong Da District","latitude":"21.0146852","longitude":"105.8235426"}]}