{"error":0,"error_text":"L\u1ea5y d\u1eef li\u1ec7u t\u1ec9nh th\u00e0nh th\u00e0nh c\u00f4ng..!","data_name":"T\u1ec9nh th\u00e0nh Vi\u1ec7t Nam","data":[{"id":"89","name":"An Giang","name_en":"An Giang","full_name":"T\u1ec9nh An Giang","full_name_en":"An Giang Province","latitude":"10.5392057","longitude":"105.2312822"},{"id":"77","name":"B\u00e0 R\u1ecba - V\u0169ng T\u00e0u","name_en":"Ba Ria - Vung Tau","full_name":"T\u1ec9nh B\u00e0 R\u1ecba - V\u0169ng T\u00e0u","full_name_en":"Ba Ria - Vung Tau Province","latitude":"10.5738801","longitude":"107.3284362"},{"id":"24","name":"B\u1eafc Giang","name_en":"Bac Giang","full_name":"T\u1ec9nh B\u1eafc Giang","full_name_en":"Bac Giang Province","latitude":"21.3169625","longitude":"106.437985"},{"id":"06","name":"B\u1eafc K\u1ea1n","name_en":"Bac Kan","full_name":"T\u1ec9nh B\u1eafc K\u1ea1n","full_name_en":"Bac Kan Province","latitude":"22.2571701","longitude":"105.8204437"},{"id":"95","name":"B\u1ea1c Li\u00eau","name_en":"Bac Lieu","full_name":"T\u1ec9nh B\u1ea1c Li\u00eau","full_name_en":"Bac Lieu Province","latitude":"9.3298341","longitude":"105.509946"},{"id":"27","name":"B\u1eafc Ninh","name_en":"Bac Ninh","full_name":"T\u1ec9nh B\u1eafc Ninh","full_name_en":"Bac Ninh Province","latitude":"21.0955822","longitude":"106.1264766"},{"id":"83","name":"B\u1ebfn Tre","name_en":"Ben Tre","full_name":"T\u1ec9nh B\u1ebfn Tre","full_name_en":"Ben Tre Province","latitude":"10.1093637","longitude":"106.4811559"},{"id":"74","name":"B\u00ecnh D\u01b0\u01a1ng","name_en":"Binh Duong","full_name":"T\u1ec9nh B\u00ecnh D\u01b0\u01a1ng","full_name_en":"Binh Duong Province","latitude":"11.1836551","longitude":"106.7031737"},{"id":"70","name":"B\u00ecnh Ph\u01b0\u1edbc","name_en":"Binh Phuoc","full_name":"T\u1ec9nh B\u00ecnh Ph\u01b0\u1edbc","full_name_en":"Binh Phuoc Province","latitude":"11.7543232","longitude":"106.9266473"},{"id":"60","name":"B\u00ecnh Thu\u1eadn","name_en":"Binh Thuan","full_name":"T\u1ec9nh B\u00ecnh Thu\u1eadn","full_name_en":"Binh Thuan Province","latitude":"11.1041572","longitude":"108.1832931"},{"id":"52","name":"B\u00ecnh \u0110\u1ecbnh","name_en":"Binh Dinh","full_name":"T\u1ec9nh B\u00ecnh \u0110\u1ecbnh","full_name_en":"Binh Dinh Province","latitude":"14.0779378","longitude":"108.9898798"},{"id":"96","name":"C\u00e0 Mau","name_en":"Ca Mau","full_name":"T\u1ec9nh C\u00e0 Mau","full_name_en":"Ca Mau Province","latitude":"9.0180177","longitude":"105.0869724"},{"id":"92","name":"C\u1ea7n Th\u01a1","name_en":"Can Tho","full_name":"Th\u00e0nh ph\u1ed1 C\u1ea7n Th\u01a1","full_name_en":"Can Tho City","latitude":"10.0364634","longitude":"105.7875821"},{"id":"04","name":"Cao B\u1eb1ng","name_en":"Cao Bang","full_name":"T\u1ec9nh Cao B\u1eb1ng","full_name_en":"Cao Bang Province","latitude":"22.7426936","longitude":"106.1060926"},{"id":"64","name":"Gia Lai","name_en":"Gia Lai","full_name":"T\u1ec9nh Gia Lai","full_name_en":"Gia Lai Province","latitude":"13.8177445","longitude":"108.2004015"},{"id":"02","name":"H\u00e0 Giang","name_en":"Ha Giang","full_name":"T\u1ec9nh H\u00e0 Giang","full_name_en":"Ha Giang Province","latitude":"22.7336097","longitude":"105.0027271"},{"id":"35","name":"H\u00e0 Nam","name_en":"Ha Nam","full_name":"T\u1ec9nh H\u00e0 Nam","full_name_en":"Ha Nam Province","latitude":"20.5340294","longitude":"105.98102482169935"},{"id":"01","name":"H\u00e0 N\u1ed9i","name_en":"Ha Noi","full_name":"Th\u00e0nh ph\u1ed1 H\u00e0 N\u1ed9i","full_name_en":"Ha Noi City","latitude":"21.0283334","longitude":"105.854041"},{"id":"42","name":"H\u00e0 T\u0129nh","name_en":"Ha Tinh","full_name":"T\u1ec9nh H\u00e0 T\u0129nh","full_name_en":"Ha Tinh Province","latitude":"18.3504832","longitude":"105.7623047"},{"id":"30","name":"H\u1ea3i D\u01b0\u01a1ng","name_en":"Hai Duong","full_name":"T\u1ec9nh H\u1ea3i D\u01b0\u01a1ng","full_name_en":"Hai Duong Province","latitude":"20.8930571","longitude":"106.3725441"},{"id":"31","name":"H\u1ea3i Ph\u00f2ng","name_en":"Hai Phong","full_name":"Th\u00e0nh ph\u1ed1 H\u1ea3i Ph\u00f2ng","full_name_en":"Hai Phong City","latitude":"20.858864","longitude":"106.6749591"},{"id":"93","name":"H\u1eadu Giang","name_en":"Hau Giang","full_name":"T\u1ec9nh H\u1eadu Giang","full_name_en":"Hau Giang Province","latitude":"9.7985063","longitude":"105.6379524"},{"id":"79","name":"H\u1ed3 Ch\u00ed Minh","name_en":"Ho Chi Minh","full_name":"Th\u00e0nh ph\u1ed1 H\u1ed3 Ch\u00ed Minh","full_name_en":"Ho Chi Minh City","latitude":"10.7763897","longitude":"106.7011391"},{"id":"17","name":"Ho\u00e0 B\u00ecnh","name_en":"Hoa Binh","full_name":"T\u1ec9nh Ho\u00e0 B\u00ecnh","full_name_en":"Hoa Binh Province","latitude":"20.6763365","longitude":"105.3759952"},{"id":"33","name":"H\u01b0ng Y\u00ean","name_en":"Hung Yen","full_name":"T\u1ec9nh H\u01b0ng Y\u00ean","full_name_en":"Hung Yen Province","latitude":"20.7833912","longitude":"106.0699025"},{"id":"56","name":"Kh\u00e1nh H\u00f2a","name_en":"Khanh Hoa","full_name":"T\u1ec9nh Kh\u00e1nh H\u00f2a","full_name_en":"Khanh Hoa Province","latitude":"12.2980751","longitude":"108.9950386"},{"id":"91","name":"Ki\u00ean Giang","name_en":"Kien Giang","full_name":"T\u1ec9nh Ki\u00ean Giang","full_name_en":"Kien Giang Province","latitude":"9.9904962","longitude":"105.2435248"},{"id":"62","name":"Kon Tum","name_en":"Kon Tum","full_name":"T\u1ec9nh Kon Tum","full_name_en":"Kon Tum Province","latitude":"14.6995372","longitude":"107.9323831"},{"id":"12","name":"Lai Ch\u00e2u","name_en":"Lai Chau","full_name":"T\u1ec9nh Lai Ch\u00e2u","full_name_en":"Lai Chau Province","latitude":"22.2921668","longitude":"103.1798662"},{"id":"68","name":"L\u00e2m \u0110\u1ed3ng","name_en":"Lam Dong","full_name":"T\u1ec9nh L\u00e2m \u0110\u1ed3ng","full_name_en":"Lam Dong Province","latitude":"11.6614957","longitude":"108.1335279"},{"id":"20","name":"L\u1ea1ng S\u01a1n","name_en":"Lang Son","full_name":"T\u1ec9nh L\u1ea1ng S\u01a1n","full_name_en":"Lang Son Province","latitude":"21.8487579","longitude":"106.6140692"},{"id":"10","name":"L\u00e0o Cai","name_en":"Lao Cai","full_name":"T\u1ec9nh L\u00e0o Cai","full_name_en":"Lao Cai Province","latitude":"22.3069302","longitude":"104.1829592"},{"id":"80","name":"Long An","name_en":"Long An","full_name":"T\u1ec9nh Long An","full_name_en":"Long An Province","latitude":"10.6983968","longitude":"106.1883517"},{"id":"36","name":"Nam \u0110\u1ecbnh","name_en":"Nam Dinh","full_name":"T\u1ec9nh Nam \u0110\u1ecbnh","full_name_en":"Nam Dinh Province","latitude":"20.2686476","longitude":"106.2289075"},{"id":"40","name":"Ngh\u1ec7 An","name_en":"Nghe An","full_name":"T\u1ec9nh Ngh\u1ec7 An","full_name_en":"Nghe An Province","latitude":"19.1976001","longitude":"105.060676"},{"id":"37","name":"Ninh B\u00ecnh","name_en":"Ninh Binh","full_name":"T\u1ec9nh Ninh B\u00ecnh","full_name_en":"Ninh Binh Province","latitude":"20.2051051","longitude":"105.9280678"},{"id":"58","name":"Ninh Thu\u1eadn","name_en":"Ninh Thuan","full_name":"T\u1ec9nh Ninh Thu\u1eadn","full_name_en":"Ninh Thuan Province","latitude":"11.6965639","longitude":"108.8928476"},{"id":"25","name":"Ph\u00fa Th\u1ecd","name_en":"Phu Tho","full_name":"T\u1ec9nh Ph\u00fa Th\u1ecd","full_name_en":"Phu Tho Province","latitude":"21.3007538","longitude":"105.1349604"},{"id":"54","name":"Ph\u00fa Y\u00ean","name_en":"Phu Yen","full_name":"T\u1ec9nh Ph\u00fa Y\u00ean","full_name_en":"Phu Yen Province","latitude":"13.1912633","longitude":"109.1273678"},{"id":"44","name":"Qu\u1ea3ng B\u00ecnh","name_en":"Quang Binh","full_name":"T\u1ec9nh Qu\u1ea3ng B\u00ecnh","full_name_en":"Quang Binh Province","latitude":"17.509599","longitude":"106.4004452"},{"id":"49","name":"Qu\u1ea3ng Nam","name_en":"Quang Nam","full_name":"T\u1ec9nh Qu\u1ea3ng Nam","full_name_en":"Quang Nam Province","latitude":"15.5761698","longitude":"108.0527132"},{"id":"51","name":"Qu\u1ea3ng Ng\u00e3i","name_en":"Quang Ngai","full_name":"T\u1ec9nh Qu\u1ea3ng Ng\u00e3i","full_name_en":"Quang Ngai Province","latitude":"14.9953739","longitude":"108.691729"},{"id":"22","name":"Qu\u1ea3ng Ninh","name_en":"Quang Ninh","full_name":"T\u1ec9nh Qu\u1ea3ng Ninh","full_name_en":"Quang Ninh Province","latitude":"21.1718046","longitude":"107.2012742"},{"id":"45","name":"Qu\u1ea3ng Tr\u1ecb","name_en":"Quang Tri","full_name":"T\u1ec9nh Qu\u1ea3ng Tr\u1ecb","full_name_en":"Quang Tri Province","latitude":"16.7897806","longitude":"106.9797431"},{"id":"94","name":"S\u00f3c Tr\u0103ng","name_en":"Soc Trang","full_name":"T\u1ec9nh S\u00f3c Tr\u0103ng","full_name_en":"Soc Trang Province","latitude":"9.5628369","longitude":"105.9493991"},{"id":"14","name":"S\u01a1n La","name_en":"Son La","full_name":"T\u1ec9nh S\u01a1n La","full_name_en":"Son La Province","latitude":"21.2276769","longitude":"104.1575944"},{"id":"72","name":"T\u00e2y Ninh","name_en":"Tay Ninh","full_name":"T\u1ec9nh T\u00e2y Ninh","full_name_en":"Tay Ninh Province","latitude":"11.4019366","longitude":"106.1626927"},{"id":"34","name":"Th\u00e1i B\u00ecnh","name_en":"Thai Binh","full_name":"T\u1ec9nh Th\u00e1i B\u00ecnh","full_name_en":"Thai Binh Province","latitude":"20.5296832","longitude":"106.3876068"},{"id":"19","name":"Th\u00e1i Nguy\u00ean","name_en":"Thai Nguyen","full_name":"T\u1ec9nh Th\u00e1i Nguy\u00ean","full_name_en":"Thai Nguyen Province","latitude":"21.6498502","longitude":"105.8351394"},{"id":"38","name":"Thanh H\u00f3a","name_en":"Thanh Hoa","full_name":"T\u1ec9nh Thanh H\u00f3a","full_name_en":"Thanh Hoa Province","latitude":"19.9781573","longitude":"105.4816107"},{"id":"46","name":"Th\u1eeba Thi\u00ean Hu\u1ebf","name_en":"Thua Thien Hue","full_name":"T\u1ec9nh Th\u1eeba Thi\u00ean Hu\u1ebf","full_name_en":"Thua Thien Hue Province","latitude":"16.3480798","longitude":"107.5398913"},{"id":"82","name":"Ti\u1ec1n Giang","name_en":"Tien Giang","full_name":"T\u1ec9nh Ti\u1ec1n Giang","full_name_en":"Tien Giang Province","latitude":"10.4030368","longitude":"106.361633"},{"id":"84","name":"Tr\u00e0 Vinh","name_en":"Tra Vinh","full_name":"T\u1ec9nh Tr\u00e0 Vinh","full_name_en":"Tra Vinh Province","latitude":"9.8037998","longitude":"106.3256808"},{"id":"08","name":"Tuy\u00ean Quang","name_en":"Tuyen Quang","full_name":"T\u1ec9nh Tuy\u00ean Quang","full_name_en":"Tuyen Quang Province","latitude":"22.0747798","longitude":"105.258411"},{"id":"86","name":"V\u0129nh Long","name_en":"Vinh Long","full_name":"T\u1ec9nh V\u0129nh Long","full_name_en":"Vinh Long Province","latitude":"10.1203043","longitude":"106.0125705"},{"id":"26","name":"V\u0129nh Ph\u00fac","name_en":"Vinh Phuc","full_name":"T\u1ec9nh V\u0129nh Ph\u00fac","full_name_en":"Vinh Phuc Province","latitude":"21.3778689","longitude":"105.5758286"},{"id":"15","name":"Y\u00ean B\u00e1i","name_en":"Yen Bai","full_name":"T\u1ec9nh Y\u00ean B\u00e1i","full_name_en":"Yen Bai Province","latitude":"21.8268679","longitude":"104.663122"},{"id":"48","name":"\u0110\u00e0 N\u1eb5ng","name_en":"Da Nang","full_name":"Th\u00e0nh ph\u1ed1 \u0110\u00e0 N\u1eb5ng","full_name_en":"Da Nang City","latitude":"16.068","longitude":"108.212"},{"id":"66","name":"\u0110\u1eafk L\u1eafk","name_en":"Dak Lak","full_name":"T\u1ec9nh \u0110\u1eafk L\u1eafk","full_name_en":"Dak Lak Province","latitude":"12.8292274","longitude":"108.2999058"},{"id":"67","name":"\u0110\u1eafk N\u00f4ng","name_en":"Dak Nong","full_name":"T\u1ec9nh \u0110\u1eafk N\u00f4ng","full_name_en":"Dak Nong Province","latitude":"12.2818851","longitude":"107.7302484"},{"id":"11","name":"\u0110i\u1ec7n Bi\u00ean","name_en":"Dien Bien","full_name":"T\u1ec9nh \u0110i\u1ec7n Bi\u00ean","full_name_en":"Dien Bien Province","latitude":"21.6546566","longitude":"103.2168632"},{"id":"75","name":"\u0110\u1ed3ng Nai","name_en":"Dong Nai","full_name":"T\u1ec9nh \u0110\u1ed3ng Nai","full_name_en":"Dong Nai Province","latitude":"11.0355624","longitude":"107.1881076"},{"id":"87","name":"\u0110\u1ed3ng Th\u00e1p","name_en":"Dong Thap","full_name":"T\u1ec9nh \u0110\u1ed3ng Th\u00e1p","full_name_en":"Dong Thap Province","latitude":"10.590424","longitude":"105.6802341"}]}